{
    "week": 296,
    "satellites": [
        {
            "Name": "BEIDOU-3 M24 (C46)",
            "Line1": "1 44542U 19061A   24344.03101313  .00000090  00000+0  00000+0 0  9992",
            "Line2": "2 44542  54.4240 201.4553 0009095  16.3547 343.7572  1.86229242 35453",
            "SatelliteNumber": "44542",
            "Classification": "U",
            "LaunchYear": "19",
            "LaunchNumber": "061",
            "PieceOfLaunch": "A",
            "EpochYear": "24",
            "EpochDay": 344.03101313,
            "FirstDerivativeMeanMotion": 9e-07,
            "SecondDerivativeMeanMotion": "00000+0",
            "BSTAR": "00000+0",
            "SetNumber": "999",
            "Inclination": 54.424,
            "RAAN": 201.4553,
            "Eccentricity": 0.0009095,
            "ArgumentOfPerigee": 16.3547,
            "MeanAnomaly": 343.7572,
            "MeanMotion": 1.86229242,
            "RevolutionNumber": "3545"
        },
        {
            "Name": "BEIDOU-3 M23 (C45)",
            "Line1": "1 44543U 19061B   24343.42390559  .00000085  00000+0  00000+0 0  9991",
            "Line2": "2 44543  54.4224 201.4446 0005709  14.4451 211.2418  1.86229359 35444",
            "SatelliteNumber": "44543",
            "Classification": "U",
            "LaunchYear": "19",
            "LaunchNumber": "061",
            "PieceOfLaunch": "B",
            "EpochYear": "24",
            "EpochDay": 343.42390559,
            "FirstDerivativeMeanMotion": 8.5e-07,
            "SecondDerivativeMeanMotion": "00000+0",
            "BSTAR": "00000+0",
            "SetNumber": "999",
            "Inclination": 54.4224,
            "RAAN": 201.4446,
            "Eccentricity": 0.0005709,
            "ArgumentOfPerigee": 14.4451,
            "MeanAnomaly": 211.2418,
            "MeanMotion": 1.86229359,
            "RevolutionNumber": "3544"
        },
        {
            "Name": "BEIDOU-3 IGSO-3 (C40)",
            "Line1": "1 44709U 19073A   24343.26028557 -.00000200  00000+0  00000+0 0  9996",
            "Line2": "2 44709  55.7565 286.8783 0039928 190.1378 169.7618  1.00249048 18882",
            "SatelliteNumber": "44709",
            "Classification": "U",
            "LaunchYear": "19",
            "LaunchNumber": "073",
            "PieceOfLaunch": "A",
            "EpochYear": "24",
            "EpochDay": 343.26028557,
            "FirstDerivativeMeanMotion": -2e-06,
            "SecondDerivativeMeanMotion": "00000+0",
            "BSTAR": "00000+0",
            "SetNumber": "999",
            "Inclination": 55.7565,
            "RAAN": 286.8783,
            "Eccentricity": 0.0039928,
            "ArgumentOfPerigee": 190.1378,
            "MeanAnomaly": 169.7618,
            "MeanMotion": 1.00249048,
            "RevolutionNumber": "1888"
        },
        {
            "Name": "BEIDOU-3 M22 (C44)",
            "Line1": "1 44793U 19078A   24343.33821365 -.00000055  00000+0  00000+0 0  9998",
            "Line2": "2 44793  54.4280 319.3054 0005740  11.6811 348.3343  1.86231859 34302",
            "SatelliteNumber": "44793",
            "Classification": "U",
            "LaunchYear": "19",
            "LaunchNumber": "078",
            "PieceOfLaunch": "A",
            "EpochYear": "24",
            "EpochDay": 343.33821365,
            "FirstDerivativeMeanMotion": -5.5e-07,
            "SecondDerivativeMeanMotion": "00000+0",
            "BSTAR": "00000+0",
            "SetNumber": "999",
            "Inclination": 54.428,
            "RAAN": 319.3054,
            "Eccentricity": 0.000574,
            "ArgumentOfPerigee": 11.6811,
            "MeanAnomaly": 348.3343,
            "MeanMotion": 1.86231859,
            "RevolutionNumber": "3430"
        },
        {
            "Name": "BEIDOU-3 M21 (C43)",
            "Line1": "1 44794U 19078B   24342.93059869 -.00000052  00000+0  00000+0 0  9993",
            "Line2": "2 44794  54.4018 319.2918 0003916 356.7423   3.2576  1.86232373 34290",
            "SatelliteNumber": "44794",
            "Classification": "U",
            "LaunchYear": "19",
            "LaunchNumber": "078",
            "PieceOfLaunch": "B",
            "EpochYear": "24",
            "EpochDay": 342.93059869,
            "FirstDerivativeMeanMotion": -5.2e-07,
            "SecondDerivativeMeanMotion": "00000+0",
            "BSTAR": "00000+0",
            "SetNumber": "999",
            "Inclination": 54.4018,
            "RAAN": 319.2918,
            "Eccentricity": 0.0003916,
            "ArgumentOfPerigee": 356.7423,
            "MeanAnomaly": 3.2576,
            "MeanMotion": 1.86232373,
            "RevolutionNumber": "3429"
        },
        {
            "Name": "BEIDOU-3 M19 (C41)",
            "Line1": "1 44864U 19090A   24343.74101755 -.00000016  00000+0  00000+0 0  9997",
            "Line2": "2 44864  56.0720  81.2270 0017337 278.8527  96.4898  1.86231221 33891",
            "SatelliteNumber": "44864",
            "Classification": "U",
            "LaunchYear": "19",
            "LaunchNumber": "090",
            "PieceOfLaunch": "A",
            "EpochYear": "24",
            "EpochDay": 343.74101755,
            "FirstDerivativeMeanMotion": -1.6e-07,
            "SecondDerivativeMeanMotion": "00000+0",
            "BSTAR": "00000+0",
            "SetNumber": "999",
            "Inclination": 56.072,
            "RAAN": 81.227,
            "Eccentricity": 0.0017337,
            "ArgumentOfPerigee": 278.8527,
            "MeanAnomaly": 96.4898,
            "MeanMotion": 1.86231221,
            "RevolutionNumber": "3389"
        },
        {
            "Name": "BEIDOU-3 M20 (C42)",
            "Line1": "1 44865U 19090B   24343.67018081 -.00000015  00000+0  00000+0 0  9998",
            "Line2": "2 44865  56.0736  81.2630 0014615 291.7084 125.8352  1.86231206 33870",
            "SatelliteNumber": "44865",
            "Classification": "U",
            "LaunchYear": "19",
            "LaunchNumber": "090",
            "PieceOfLaunch": "B",
            "EpochYear": "24",
            "EpochDay": 343.67018081,
            "FirstDerivativeMeanMotion": -1.5e-07,
            "SecondDerivativeMeanMotion": "00000+0",
            "BSTAR": "00000+0",
            "SetNumber": "999",
            "Inclination": 56.0736,
            "RAAN": 81.263,
            "Eccentricity": 0.0014615,
            "ArgumentOfPerigee": 291.7084,
            "MeanAnomaly": 125.8352,
            "MeanMotion": 1.86231206,
            "RevolutionNumber": "3387"
        },
        {
            "Name": "BEIDOU-3 G2 (C60)",
            "Line1": "1 45344U 20017A   24344.01854993 -.00000126  00000+0  00000+0 0  9994",
            "Line2": "2 45344   2.5589  35.6222 0004409 222.4877 266.8728  1.00271234 17704",
            "SatelliteNumber": "45344",
            "Classification": "U",
            "LaunchYear": "20",
            "LaunchNumber": "017",
            "PieceOfLaunch": "A",
            "EpochYear": "24",
            "EpochDay": 344.01854993,
            "FirstDerivativeMeanMotion": -1.26e-06,
            "SecondDerivativeMeanMotion": "00000+0",
            "BSTAR": "00000+0",
            "SetNumber": "999",
            "Inclination": 2.5589,
            "RAAN": 35.6222,
            "Eccentricity": 0.0004409,
            "ArgumentOfPerigee": 222.4877,
            "MeanAnomaly": 266.8728,
            "MeanMotion": 1.00271234,
            "RevolutionNumber": "1770"
        },
        {
            "Name": "BEIDOU-3 G3 (C61)",
            "Line1": "1 45807U 20040A   24343.89984588 -.00000338  00000+0  00000+0 0  9998",
            "Line2": "2 45807   1.1236  57.2289 0003750 297.4644 157.9032  1.00265933 16501",
            "SatelliteNumber": "45807",
            "Classification": "U",
            "LaunchYear": "20",
            "LaunchNumber": "040",
            "PieceOfLaunch": "A",
            "EpochYear": "24",
            "EpochDay": 343.89984588,
            "FirstDerivativeMeanMotion": -3.38e-06,
            "SecondDerivativeMeanMotion": "00000+0",
            "BSTAR": "00000+0",
            "SetNumber": "999",
            "Inclination": 1.1236,
            "RAAN": 57.2289,
            "Eccentricity": 0.000375,
            "ArgumentOfPerigee": 297.4644,
            "MeanAnomaly": 157.9032,
            "MeanMotion": 1.00265933,
            "RevolutionNumber": "1650"
        },
        {
            "Name": "BEIDOU-3 G4 (C62)",
            "Line1": "1 56564U 23066A   24343.83824622 -.00000096  00000+0  00000+0 0  9998",
            "Line2": "2 56564   1.6903 289.1334 0004145 261.4418 349.3157  1.00270272  5825",
            "SatelliteNumber": "56564",
            "Classification": "U",
            "LaunchYear": "23",
            "LaunchNumber": "066",
            "PieceOfLaunch": "A",
            "EpochYear": "24",
            "EpochDay": 343.83824622,
            "FirstDerivativeMeanMotion": -9.6e-07,
            "SecondDerivativeMeanMotion": "00000+0",
            "BSTAR": "00000+0",
            "SetNumber": "999",
            "Inclination": 1.6903,
            "RAAN": 289.1334,
            "Eccentricity": 0.0004145,
            "ArgumentOfPerigee": 261.4418,
            "MeanAnomaly": 349.3157,
            "MeanMotion": 1.00270272,
            "RevolutionNumber": "582"
        }
    ]
}